[
    {
        "CCSDS_OMM_VERS": "3.0",
        "COMMENT": "GENERATED VIA SPACE-TRACK.ORG API",
        "CREATION_DATE": "2025-03-02T18:08:23",
        "ORIGINATOR": "18 SPCS",
        "OBJECT_NAME": "BEIDOU 3M1",
        "OBJECT_ID": "2017-069A",
        "CENTER_NAME": "EARTH",
        "REF_FRAME": "TEME",
        "TIME_SYSTEM": "UTC",
        "MEAN_ELEMENT_THEORY": "SGP4",
        "EPOCH": "2025-03-02T03:36:01.210464",
        "MEAN_MOTION": "1.86231046",
        "ECCENTRICITY": "0.00122390",
        "INCLINATION": "56.2778",
        "RA_OF_ASC_NODE": "78.6824",
        "ARG_OF_PERICENTER": "302.8324",
        "MEAN_ANOMALY": "57.1017",
        "EPHEMERIS_TYPE": "0",
        "CLASSIFICATION_TYPE": "U",
        "NORAD_CAT_ID": "43001",
        "ELEMENT_SET_NO": "999",
        "REV_AT_EPOCH": "4981",
        "BSTAR": "0.00000000000000",
        "MEAN_MOTION_DOT": "0.00000012",
        "MEAN_MOTION_DDOT": "0.0000000000000",
        "SEMIMAJOR_AXIS": "27906.184",
        "PERIOD": "773.233",
        "APOAPSIS": "21562.203",
        "PERIAPSIS": "21493.895",
        "OBJECT_TYPE": "PAYLOAD",
        "RCS_SIZE": "LARGE",
        "COUNTRY_CODE": "PRC",
        "LAUNCH_DATE": "2017-11-05",
        "SITE": "XSC",
        "DECAY_DATE": null,
        "FILE": "4657142",
        "GP_ID": "282087007",
        "TLE_LINE0": "0 BEIDOU 3M1",
        "TLE_LINE1": "1 43001U 17069A   25061.15001401  .00000012  00000-0  00000-0 0  9990",
        "TLE_LINE2": "2 43001  56.2778  78.6824 0012239 302.8324  57.1017  1.86231046 49813"
    }
]